STARLINK-36366          
1 68122U 26044X   26073.83335648 -.01798535  10103-2 -30059-2 0  9999
2 68122  97.2801  34.1108 0001136  93.7888 211.6847 16.03047659  2225
STARLINK-36922          
1 68123U 26044Y   26073.83335648 -.01792322  10070-2 -29485-2 0  9992
2 68123  97.2802  34.1126 0001283  94.1004 215.2982 16.03315562  2226
STARLINK-36938          
1 68124U 26044Z   26073.83335648 -.01796902  10134-2 -29338-2 0  9999
2 68124  97.2802  34.1133 0001169  95.1236 216.0238 16.03444033  2225
STARLINK-36839          
1 68125U 26044AA  26073.83335648 -.01788531  10015-2 -29635-2 0  9997
2 68125  97.2803  34.1120 0001250  88.1258 219.5512 16.03192964  2170
ECHOSTAR 25             
1 68126U 26045A   26070.41163374  .00000389  00000+0  64833-4 0  9991
2 68126  26.8991  70.3993 6209397 175.3735 195.5868  3.74430284    50
ICOR SV                 
1 68127U 26046A   26072.90953491  .00482503  92133-4  10434-2 0  9997
2 68127 123.0797 224.1306 0140888 188.2572 171.6170 15.82606913   290
FIREFLY ALPHA R/B       
1 68128U 26046B   26073.90360951  .00046790  00000+0  65766-3 0  9992
2 68128 123.0916 228.1666 0013575 345.8437  14.2241 15.56168018   459
GUOWANG GROUP 20 OBJECT*
1 68129U 26047A   26074.00324490 -.00000138  00000+0  83376-5 0  9990
2 68129  50.0052  48.8165 0009118 270.7651  89.2210 14.05944149   316
GUOWANG GROUP 20 OBJECT*
1 68130U 26047B   26074.00306758 -.00000139  00000+0  78248-5 0  9992
2 68130  50.0042  48.8174 0007764 265.9471  94.0547 14.06063658   302
SHIYAN-30 03            
1 68139U 26048A   26073.79336951  .00003768  00000+0  35978-3 0  9996
2 68139  34.9996 113.4693 0004892 317.1942  42.8382 14.92809900   263
SHIYAN-30 04            
1 68140U 26048B   26073.86056820  .00003095  00000+0  29835-3 0  9998
2 68140  34.9910 113.0752 0004554 311.7439  48.2876 14.92495429   275
CZ-2D R/B               
1 68141U 26048C   26073.79010998  .00002069  00000+0  18562-3 0  9992
2 68141  35.1291 113.6240 0015484   8.1920 351.9039 14.95517804   264
